[{"OBJECT_NAME":"STARLINK-11181 [DTC]","OBJECT_ID":"2024-113A","EPOCH":"2025-09-10T14:18:17.765280","MEAN_MOTION":15.69716973,"ECCENTRICITY":8.288e-5,"INCLINATION":53.1582,"RA_OF_ASC_NODE":359.1432,"ARG_OF_PERICENTER":80.1374,"MEAN_ANOMALY":279.9737,"EPHEMERIS_TYPE":0,"CLASSIFICATION_TYPE":"U","NORAD_CAT_ID":60059,"ELEMENT_SET_NO":999,"REV_AT_EPOCH":7127,"BSTAR":-1.5059764e-5,"MEAN_MOTION_DOT":-2.413e-5,"MEAN_MOTION_DDOT":0},{"OBJECT_NAME":"STARLINK-11176 [DTC]","OBJECT_ID":"2024-113B","EPOCH":"2025-09-11T06:59:45.813408","MEAN_MOTION":15.69713961,"ECCENTRICITY":9.682e-5,"INCLINATION":53.1596,"RA_OF_ASC_NODE":355.6584,"ARG_OF_PERICENTER":66.5143,"MEAN_ANOMALY":293.5977,"EPHEMERIS_TYPE":0,"CLASSIFICATION_TYPE":"U","NORAD_CAT_ID":60060,"ELEMENT_SET_NO":999,"REV_AT_EPOCH":7138,"BSTAR":-2.1493882e-5,"MEAN_MOTION_DOT":-3.192e-5,"MEAN_MOTION_DDOT":0},{"OBJECT_NAME":"STARLINK-11167 [DTC]","OBJECT_ID":"2024-113C","EPOCH":"2025-09-10T14:04:09.283584","MEAN_MOTION":15.69734245,"ECCENTRICITY":9.417e-5,"INCLINATION":53.158,"RA_OF_ASC_NODE":359.0775,"ARG_OF_PERICENTER":97.1027,"MEAN_ANOMALY":263.0098,"EPHEMERIS_TYPE":0,"CLASSIFICATION_TYPE":"U","NORAD_CAT_ID":60061,"ELEMENT_SET_NO":999,"REV_AT_EPOCH":7157,"BSTAR":-1.4569547e-5,"MEAN_MOTION_DOT":-2.355e-5,"MEAN_MOTION_DDOT":0},{"OBJECT_NAME":"STARLINK-11166 [DTC]","OBJECT_ID":"2024-113D","EPOCH":"2025-09-10T13:57:05.815584","MEAN_MOTION":15.69725866,"ECCENTRICITY":0.00011224,"INCLINATION":53.1593,"RA_OF_ASC_NODE":359.0441,"ARG_OF_PERICENTER":74.5904,"MEAN_ANOMALY":285.5238,"EPHEMERIS_TYPE":0,"CLASSIFICATION_TYPE":"U","NORAD_CAT_ID":60062,"ELEMENT_SET_NO":999,"REV_AT_EPOCH":7127,"BSTAR":-8.131332e-6,"MEAN_MOTION_DOT":-1.574e-5,"MEAN_MOTION_DDOT":0},{"OBJECT_NAME":"STARLINK-11165 [DTC]","OBJECT_ID":"2024-113E","EPOCH":"2025-09-11T00:31:49.906560","MEAN_MOTION":15.69688872,"ECCENTRICITY":8.987e-5,"INCLINATION":53.1577,"RA_OF_ASC_NODE":356.8158,"ARG_OF_PERICENTER":96.0216,"MEAN_ANOMALY":264.0904,"EPHEMERIS_TYPE":0,"CLASSIFICATION_TYPE":"U","NORAD_CAT_ID":60063,"ELEMENT_SET_NO":999,"REV_AT_EPOCH":7134,"BSTAR":4.180224e-5,"MEAN_MOTION_DOT":4.474e-5,"MEAN_MOTION_DDOT":0},{"OBJECT_NAME":"STARLINK-11169 [DTC]","OBJECT_ID":"2024-113F","EPOCH":"2025-09-11T00:24:45.441504","MEAN_MOTION":15.69721856,"ECCENTRICITY":9.681e-5,"INCLINATION":53.1586,"RA_OF_ASC_NODE":356.7848,"ARG_OF_PERICENTER":66.9421,"MEAN_ANOMALY":293.1699,"EPHEMERIS_TYPE":0,"CLASSIFICATION_TYPE":"U","NORAD_CAT_ID":60064,"ELEMENT_SET_NO":999,"REV_AT_EPOCH":7134,"BSTAR":-3.2341791e-5,"MEAN_MOTION_DOT":-4.506e-5,"MEAN_MOTION_DDOT":0},{"OBJECT_NAME":"STARLINK-11102 [DTC]","OBJECT_ID":"2024-113G","EPOCH":"2025-09-11T00:17:41.561376","MEAN_MOTION":15.69723028,"ECCENTRICITY":9.153e-5,"INCLINATION":53.1591,"RA_OF_ASC_NODE":356.7502,"ARG_OF_PERICENTER":80.4476,"MEAN_ANOMALY":279.6645,"EPHEMERIS_TYPE":0,"CLASSIFICATION_TYPE":"U","NORAD_CAT_ID":60065,"ELEMENT_SET_NO":999,"REV_AT_EPOCH":7134,"BSTAR":-2.4717574e-5,"MEAN_MOTION_DOT":-3.583e-5,"MEAN_MOTION_DDOT":0},{"OBJECT_NAME":"STARLINK-11141 [DTC]","OBJECT_ID":"2024-113H","EPOCH":"2025-09-10T13:28:50.465280","MEAN_MOTION":15.69717792,"ECCENTRICITY":0.00011874,"INCLINATION":53.1596,"RA_OF_ASC_NODE":358.9153,"ARG_OF_PERICENTER":102.2076,"MEAN_ANOMALY":257.9075,"EPHEMERIS_TYPE":0,"CLASSIFICATION_TYPE":"U","NORAD_CAT_ID":60066,"ELEMENT_SET_NO":999,"REV_AT_EPOCH":7127,"BSTAR":8.215074e-6,"MEAN_MOTION_DOT":4.07e-6,"MEAN_MOTION_DDOT":0},{"OBJECT_NAME":"STARLINK-11153 [DTC]","OBJECT_ID":"2024-113J","EPOCH":"2025-09-11T06:10:27.984576","MEAN_MOTION":15.69691641,"ECCENTRICITY":7.288e-5,"INCLINATION":53.159,"RA_OF_ASC_NODE":356.1632,"ARG_OF_PERICENTER":93.5048,"MEAN_ANOMALY":266.6053,"EPHEMERIS_TYPE":0,"CLASSIFICATION_TYPE":"U","NORAD_CAT_ID":60067,"ELEMENT_SET_NO":999,"REV_AT_EPOCH":7137,"BSTAR":-9.336864e-6,"MEAN_MOTION_DOT":-1.718e-5,"MEAN_MOTION_DDOT":0},{"OBJECT_NAME":"STARLINK-11170 [DTC]","OBJECT_ID":"2024-113K","EPOCH":"2025-09-10T23:56:38.862528","MEAN_MOTION":15.69721792,"ECCENTRICITY":0.00010894,"INCLINATION":53.1592,"RA_OF_ASC_NODE":357.3857,"ARG_OF_PERICENTER":90.13,"MEAN_ANOMALY":269.9843,"EPHEMERIS_TYPE":0,"CLASSIFICATION_TYPE":"U","NORAD_CAT_ID":60068,"ELEMENT_SET_NO":999,"REV_AT_EPOCH":7133,"BSTAR":-2.1641329e-5,"MEAN_MOTION_DOT":-3.211e-5,"MEAN_MOTION_DDOT":0},{"OBJECT_NAME":"STARLINK-11171 [DTC]","OBJECT_ID":"2024-113L","EPOCH":"2025-09-10T23:49:35.263200","MEAN_MOTION":15.69717456,"ECCENTRICITY":0.0001345,"INCLINATION":53.1577,"RA_OF_ASC_NODE":357.3543,"ARG_OF_PERICENTER":82.5937,"MEAN_ANOMALY":277.5234,"EPHEMERIS_TYPE":0,"CLASSIFICATION_TYPE":"U","NORAD_CAT_ID":60069,"ELEMENT_SET_NO":999,"REV_AT_EPOCH":7133,"BSTAR":8.8614651e-5,"MEAN_MOTION_DOT":0.00010163,"MEAN_MOTION_DDOT":0},{"OBJECT_NAME":"STARLINK-11186 [DTC]","OBJECT_ID":"2024-113M","EPOCH":"2025-09-10T23:42:31.245696","MEAN_MOTION":15.69722804,"ECCENTRICITY":0.00013813,"INCLINATION":53.1587,"RA_OF_ASC_NODE":357.3215,"ARG_OF_PERICENTER":136.9539,"MEAN_ANOMALY":223.1587,"EPHEMERIS_TYPE":0,"CLASSIFICATION_TYPE":"U","NORAD_CAT_ID":60070,"ELEMENT_SET_NO":999,"REV_AT_EPOCH":7174,"BSTAR":-2.7033599e-5,"MEAN_MOTION_DOT":-3.864e-5,"MEAN_MOTION_DDOT":0},{"OBJECT_NAME":"STARLINK-11184 [DTC]","OBJECT_ID":"2024-113N","EPOCH":"2025-09-10T15:57:03.249216","MEAN_MOTION":15.69720811,"ECCENTRICITY":0.00011452,"INCLINATION":53.1587,"RA_OF_ASC_NODE":358.8965,"ARG_OF_PERICENTER":68.4064,"MEAN_ANOMALY":291.7076,"EPHEMERIS_TYPE":0,"CLASSIFICATION_TYPE":"U","NORAD_CAT_ID":60071,"ELEMENT_SET_NO":999,"REV_AT_EPOCH":7128,"BSTAR":-3.2260867e-5,"MEAN_MOTION_DOT":-4.497e-5,"MEAN_MOTION_DDOT":0},{"OBJECT_NAME":"STARLINK-32032","OBJECT_ID":"2024-113U","EPOCH":"2025-09-11T00:09:16.498080","MEAN_MOTION":15.30195065,"ECCENTRICITY":0.0001332,"INCLINATION":53.1609,"RA_OF_ASC_NODE":113.4413,"ARG_OF_PERICENTER":90.3912,"MEAN_ANOMALY":269.7241,"EPHEMERIS_TYPE":0,"CLASSIFICATION_TYPE":"U","NORAD_CAT_ID":60077,"ELEMENT_SET_NO":999,"REV_AT_EPOCH":6972,"BSTAR":-3.8956544e-5,"MEAN_MOTION_DOT":-1.513e-5,"MEAN_MOTION_DDOT":0},{"OBJECT_NAME":"STARLINK-31441","OBJECT_ID":"2024-117A","EPOCH":"2025-09-10T23:35:13.144128","MEAN_MOTION":15.30176228,"ECCENTRICITY":0.00014011,"INCLINATION":53.1602,"RA_OF_ASC_NODE":151.768,"ARG_OF_PERICENTER":93.5901,"MEAN_ANOMALY":266.526,"EPHEMERIS_TYPE":0,"CLASSIFICATION_TYPE":"U","NORAD_CAT_ID":60091,"ELEMENT_SET_NO":999,"REV_AT_EPOCH":6937,"BSTAR":-0.00052248284,"MEAN_MOTION_DOT":-0.0001579,"MEAN_MOTION_DDOT":0},{"OBJECT_NAME":"STARLINK-32044","OBJECT_ID":"2024-117B","EPOCH":"2025-09-11T02:14:27.186144","MEAN_MOTION":15.30185932,"ECCENTRICITY":0.00010837,"INCLINATION":53.1593,"RA_OF_ASC_NODE":151.0347,"ARG_OF_PERICENTER":103.9479,"MEAN_ANOMALY":256.1642,"EPHEMERIS_TYPE":0,"CLASSIFICATION_TYPE":"U","NORAD_CAT_ID":60092,"ELEMENT_SET_NO":999,"REV_AT_EPOCH":6939,"BSTAR":-1.428574e-6,"MEAN_MOTION_DOT":-4.01e-6,"MEAN_MOTION_DDOT":0},{"OBJECT_NAME":"STARLINK-31239","OBJECT_ID":"2024-117C","EPOCH":"2025-09-11T03:30:26.173728","MEAN_MOTION":15.30185358,"ECCENTRICITY":9.933e-5,"INCLINATION":53.1565,"RA_OF_ASC_NODE":151.368,"ARG_OF_PERICENTER":77.4884,"MEAN_ANOMALY":282.6228,"EPHEMERIS_TYPE":0,"CLASSIFICATION_TYPE":"U","NORAD_CAT_ID":60093,"ELEMENT_SET_NO":999,"REV_AT_EPOCH":6939,"BSTAR":0.0011276628,"MEAN_MOTION_DOT":0.00033173,"MEAN_MOTION_DDOT":0},{"OBJECT_NAME":"STARLINK-32007","OBJECT_ID":"2024-117D","EPOCH":"2025-09-11T03:10:40.906560","MEAN_MOTION":15.30191698,"ECCENTRICITY":0.00011224,"INCLINATION":53.1576,"RA_OF_ASC_NODE":151.2799,"ARG_OF_PERICENTER":75.5013,"MEAN_ANOMALY":284.6112,"EPHEMERIS_TYPE":0,"CLASSIFICATION_TYPE":"U","NORAD_CAT_ID":60094,"ELEMENT_SET_NO":999,"REV_AT_EPOCH":6939,"BSTAR":0.00041065257,"MEAN_MOTION_DOT":0.00011819,"MEAN_MOTION_DDOT":0},{"OBJECT_NAME":"STARLINK-32028","OBJECT_ID":"2024-117E","EPOCH":"2025-09-11T02:57:00.339840","MEAN_MOTION":15.30179281,"ECCENTRICITY":0.00013356,"INCLINATION":53.1601,"RA_OF_ASC_NODE":151.2214,"ARG_OF_PERICENTER":77.8491,"MEAN_ANOMALY":282.266,"EPHEMERIS_TYPE":0,"CLASSIFICATION_TYPE":"U","NORAD_CAT_ID":60095,"ELEMENT_SET_NO":999,"REV_AT_EPOCH":6939,"BSTAR":6.5333248e-5,"MEAN_MOTION_DOT":1.575e-5,"MEAN_MOTION_DDOT":0},{"OBJECT_NAME":"STARLINK-32016","OBJECT_ID":"2024-117F","EPOCH":"2025-09-11T03:24:21.062016","MEAN_MOTION":15.3019629,"ECCENTRICITY":0.00012319,"INCLINATION":53.1582,"RA_OF_ASC_NODE":151.3397,"ARG_OF_PERICENTER":100.1022,"MEAN_ANOMALY":260.0118,"EPHEMERIS_TYPE":0,"CLASSIFICATION_TYPE":"U","NORAD_CAT_ID":60096,"ELEMENT_SET_NO":999,"REV_AT_EPOCH":6939,"BSTAR":6.199637e-6,"MEAN_MOTION_DOT":-1.76e-6,"MEAN_MOTION_DDOT":0},{"OBJECT_NAME":"STARLINK-32003","OBJECT_ID":"2024-117G","EPOCH":"2025-09-10T23:29:09.097728","MEAN_MOTION":15.30194123,"ECCENTRICITY":0.00012964,"INCLINATION":53.1615,"RA_OF_ASC_NODE":151.7395,"ARG_OF_PERICENTER":85.5018,"MEAN_ANOMALY":274.6131,"EPHEMERIS_TYPE":0,"CLASSIFICATION_TYPE":"U","NORAD_CAT_ID":60097,"ELEMENT_SET_NO":999,"REV_AT_EPOCH":6937,"BSTAR":-0.00011022095,"MEAN_MOTION_DOT":-3.621e-5,"MEAN_MOTION_DDOT":0},{"OBJECT_NAME":"STARLINK-32026","OBJECT_ID":"2024-117H","EPOCH":"2025-09-11T02:50:56.346144","MEAN_MOTION":15.30191536,"ECCENTRICITY":0.00013026,"INCLINATION":53.1603,"RA_OF_ASC_NODE":151.1935,"ARG_OF_PERICENTER":73.3978,"MEAN_ANOMALY":286.7166,"EPHEMERIS_TYPE":0,"CLASSIFICATION_TYPE":"U","NORAD_CAT_ID":60098,"ELEMENT_SET_NO":999,"REV_AT_EPOCH":6939,"BSTAR":-0.00010300181,"MEAN_MOTION_DOT":-3.408e-5,"MEAN_MOTION_DDOT":0},{"OBJECT_NAME":"STARLINK-31732","OBJECT_ID":"2024-117J","EPOCH":"2025-09-11T00:29:45.461184","MEAN_MOTION":15.30205869,"ECCENTRICITY":0.00011371,"INCLINATION":53.1595,"RA_OF_ASC_NODE":151.2902,"ARG_OF_PERICENTER":91.803,"MEAN_ANOMALY":268.3101,"EPHEMERIS_TYPE":0,"CLASSIFICATION_TYPE":"U","NORAD_CAT_ID":60099,"ELEMENT_SET_NO":999,"REV_AT_EPOCH":6938,"BSTAR":-2.0056056e-5,"MEAN_MOTION_DOT":-9.53e-6,"MEAN_MOTION_DDOT":0}]
